// GENERATED CODE - DO NOT MODIFY BY HAND

part of perf_test.test;

// **************************************************************************
// JsonSerializableGenerator
// **************************************************************************

SpaceTrack _$SpaceTrackFromJson(Map<String, dynamic> json) => SpaceTrack()
  ..ccsdsOmmVers = json['CCSDS_OMM_VERS'] as String?
  ..comment = json['COMMENT'] as String?
  ..originator = json['ORIGINATOR'] as String?
  ..objectName = json['OBJECT_NAME'] as String?
  ..objectId = json['OBJECT_ID'] as String?
  ..objectType = json['OBJECT_TYPE'] as String?
  ..centerName = json['CENTER_NAME'] as String?
  ..refFrame = json['REF_FRAME'] as String?
  ..timeSystem = json['TIME_SYSTEM'] as String?
  ..meanElementTheory = json['MEAN_ELEMENT_THEORY'] as String?
  ..classificationType = json['CLASSIFICATION_TYPE'] as String?
  ..rcsSize = json['RCS_SIZE'] as String?
  ..countryCode = json['COUNTRY_CODE'] as String?
  ..site = json['SITE'] as String?
  ..tleLine0 = json['TLE_LINE0'] as String?
  ..tleLine1 = json['TLE_LINE1'] as String?
  ..tleLine2 = json['TLE_LINE2'] as String?
  ..meanMotion = json['MEAN_MOTION'] as num?
  ..eccentricity = json['ECCENTRICITY'] as num?
  ..raOfAscNode = json['RA_OF_ASC_NODE'] as num?
  ..argOfPericenter = json['ARG_OF_PERICENTER'] as num?
  ..meanAnomaly = json['MEAN_ANOMALY'] as num?
  ..ephemerisType = json['EPHEMERIS_TYPE'] as num?
  ..noradCatId = json['NORAD_CAT_ID'] as num?
  ..elementSetNo = json['ELEMENT_SET_NO'] as num?
  ..revAtEpoch = json['REV_AT_EPOCH'] as num?
  ..bstar = json['BSTAR'] as num?
  ..meanMotionDot = json['MEAN_MOTION_DOT'] as num?
  ..meanMotionDdot = json['MEAN_MOTION_DDOT'] as num?
  ..semimajorAxis = json['SEMIMAJOR_AXIS'] as num?
  ..period = json['PERIOD'] as num?
  ..apoapsis = json['APOAPSIS'] as num?
  ..periapsis = json['PERIAPSIS'] as num?
  ..decayed = json['DECAYED'] as num?
  ..file = json['FILE'] as num?
  ..gpId = json['GP_ID'] as num?
  ..decayDate = SpaceTrack._dateTimeFromStringDefault(json['DECAY_DATE'])
  ..creationDate = SpaceTrack._dateTimeFromStringDefault(json['CREATION_DATE'])
  ..epoch = SpaceTrack._dateTimeFromStringDefault(json['EPOCH'])
  ..launchDate = SpaceTrack._dateTimeFromString(json['LAUNCH_DATE'] as String);

Map<String, dynamic> _$SpaceTrackToJson(SpaceTrack instance) =>
    <String, dynamic>{
      'CCSDS_OMM_VERS': instance.ccsdsOmmVers,
      'COMMENT': instance.comment,
      'ORIGINATOR': instance.originator,
      'OBJECT_NAME': instance.objectName,
      'OBJECT_ID': instance.objectId,
      'OBJECT_TYPE': instance.objectType,
      'CENTER_NAME': instance.centerName,
      'REF_FRAME': instance.refFrame,
      'TIME_SYSTEM': instance.timeSystem,
      'MEAN_ELEMENT_THEORY': instance.meanElementTheory,
      'CLASSIFICATION_TYPE': instance.classificationType,
      'RCS_SIZE': instance.rcsSize,
      'COUNTRY_CODE': instance.countryCode,
      'SITE': instance.site,
      'TLE_LINE0': instance.tleLine0,
      'TLE_LINE1': instance.tleLine1,
      'TLE_LINE2': instance.tleLine2,
      'MEAN_MOTION': instance.meanMotion,
      'ECCENTRICITY': instance.eccentricity,
      'RA_OF_ASC_NODE': instance.raOfAscNode,
      'ARG_OF_PERICENTER': instance.argOfPericenter,
      'MEAN_ANOMALY': instance.meanAnomaly,
      'EPHEMERIS_TYPE': instance.ephemerisType,
      'NORAD_CAT_ID': instance.noradCatId,
      'ELEMENT_SET_NO': instance.elementSetNo,
      'REV_AT_EPOCH': instance.revAtEpoch,
      'BSTAR': instance.bstar,
      'MEAN_MOTION_DOT': instance.meanMotionDot,
      'MEAN_MOTION_DDOT': instance.meanMotionDdot,
      'SEMIMAJOR_AXIS': instance.semimajorAxis,
      'PERIOD': instance.period,
      'APOAPSIS': instance.apoapsis,
      'PERIAPSIS': instance.periapsis,
      'DECAYED': instance.decayed,
      'FILE': instance.file,
      'GP_ID': instance.gpId,
      'DECAY_DATE': SpaceTrack._dateTimeToStringDefault(instance.decayDate),
      'CREATION_DATE':
          SpaceTrack._dateTimeToStringDefault(instance.creationDate),
      'EPOCH': SpaceTrack._dateTimeToStringDefault(instance.epoch),
      'LAUNCH_DATE': SpaceTrack._dateTimeToString(instance.launchDate),
    };

Record _$RecordFromJson(Map<String, dynamic> json) => Record()
  ..spaceTrack = json['spaceTrack'] == null
      ? null
      : SpaceTrack.fromJson(json['spaceTrack'] as Map<String, dynamic>)
  ..version = json['version'] as String?
  ..id = json['id'] as String?
  ..launch = json['launch'] as String?;

Map<String, dynamic> _$RecordToJson(Record instance) => <String, dynamic>{
      'spaceTrack': instance.spaceTrack?.toJson(),
      'version': instance.version,
      'id': instance.id,
      'launch': instance.launch,
    };

// **************************************************************************
// JsonLiteralGenerator
// **************************************************************************

final _$listJsonLiteral = [
  {
    'spaceTrack': {
      'CCSDS_OMM_VERS': '2.0',
      'COMMENT': 'GENERATED VIA SPACE-TRACK.ORG API',
      'CREATION_DATE': '2020-06-21 10:06:09',
      'ORIGINATOR': '18 SPCS',
      'OBJECT_NAME': 'STARLINK-30',
      'OBJECT_ID': '2019-029K',
      'CENTER_NAME': 'EARTH',
      'REF_FRAME': 'TEME',
      'TIME_SYSTEM': 'UTC',
      'MEAN_ELEMENT_THEORY': 'SGP4',
      'EPOCH': '2020-06-21 08:00:01.999872',
      'MEAN_MOTION': 15.43874115,
      'ECCENTRICITY': 0.000125,
      'INCLINATION': 52.995,
      'RA_OF_ASC_NODE': 188.7153,
      'ARG_OF_PERICENTER': 102.274,
      'MEAN_ANOMALY': 177.4855,
      'EPHEMERIS_TYPE': 0,
      'CLASSIFICATION_TYPE': 'U',
      'NORAD_CAT_ID': 44244,
      'ELEMENT_SET_NO': 999,
      'REV_AT_EPOCH': 5970,
      'BSTAR': -0.00032,
      'MEAN_MOTION_DOT': -0.00015044,
      'MEAN_MOTION_DDOT': 0,
      'SEMIMAJOR_AXIS': 6812.825,
      'PERIOD': 93.271,
      'APOAPSIS': 435.541,
      'PERIAPSIS': 433.838,
      'OBJECT_TYPE': 'PAYLOAD',
      'RCS_SIZE': 'LARGE',
      'COUNTRY_CODE': 'US',
      'LAUNCH_DATE': '2019-05-24',
      'SITE': 'AFETR',
      'DECAY_DATE': null,
      'DECAYED': 0,
      'FILE': 2770040,
      'GP_ID': 156071228,
      'TLE_LINE0': '0 STARLINK-30',
      'TLE_LINE1':
          '1 44244U 19029K   20173.33335648 -.00015044  00000-0 -31780-3 0  9995',
      'TLE_LINE2':
          '2 44244  52.9950 188.7153 0001250 102.2740 177.4855 15.43874115 59704'
    },
    'version': 'v0.9',
    'launch': '5eb87d30ffd86e000604b378',
    'id': '5eed770f096e59000698560d'
  },
  {
    'spaceTrack': {
      'CCSDS_OMM_VERS': '2.0',
      'COMMENT': 'GENERATED VIA SPACE-TRACK.ORG API',
      'CREATION_DATE': '2020-06-21 10:06:09',
      'ORIGINATOR': '18 SPCS',
      'OBJECT_NAME': 'STARLINK-74',
      'OBJECT_ID': '2019-029BL',
      'CENTER_NAME': 'EARTH',
      'REF_FRAME': 'TEME',
      'TIME_SYSTEM': 'UTC',
      'MEAN_ELEMENT_THEORY': 'SGP4',
      'EPOCH': '2020-06-21 08:00:01.999872',
      'MEAN_MOTION': 15.43858984,
      'ECCENTRICITY': 0.00012,
      'INCLINATION': 53.005,
      'RA_OF_ASC_NODE': 189.258,
      'ARG_OF_PERICENTER': 98.6746,
      'MEAN_ANOMALY': 289.1124,
      'EPHEMERIS_TYPE': 0,
      'CLASSIFICATION_TYPE': 'U',
      'NORAD_CAT_ID': 44293,
      'ELEMENT_SET_NO': 999,
      'REV_AT_EPOCH': 6079,
      'BSTAR': -0.00035,
      'MEAN_MOTION_DOT': -0.00016534,
      'MEAN_MOTION_DDOT': 0,
      'SEMIMAJOR_AXIS': 6812.869,
      'PERIOD': 93.272,
      'APOAPSIS': 435.552,
      'PERIAPSIS': 433.917,
      'OBJECT_TYPE': 'PAYLOAD',
      'RCS_SIZE': 'LARGE',
      'COUNTRY_CODE': 'US',
      'LAUNCH_DATE': '2019-05-24',
      'SITE': 'AFETR',
      'DECAY_DATE': null,
      'DECAYED': 0,
      'FILE': 2770044,
      'GP_ID': 156071101,
      'TLE_LINE0': '0 STARLINK-74',
      'TLE_LINE1':
          '1 44293U 19029BL  20173.33335648 -.00016534  00000-0 -35042-3 0  9999',
      'TLE_LINE2':
          '2 44293  53.0048 189.2580 0001200  98.6746 289.1124 15.43858984 60794'
    },
    'version': 'v0.9',
    'launch': '5eb87d30ffd86e000604b378',
    'id': '5eed770f096e59000698560e'
  },
  {
    'spaceTrack': {
      'CCSDS_OMM_VERS': '2.0',
      'COMMENT': 'GENERATED VIA SPACE-TRACK.ORG API',
      'CREATION_DATE': '2020-06-21 10:06:09',
      'ORIGINATOR': '18 SPCS',
      'OBJECT_NAME': 'STARLINK-29',
      'OBJECT_ID': '2019-029J',
      'CENTER_NAME': 'EARTH',
      'REF_FRAME': 'TEME',
      'TIME_SYSTEM': 'UTC',
      'MEAN_ELEMENT_THEORY': 'SGP4',
      'EPOCH': '2020-06-21 08:00:01.999872',
      'MEAN_MOTION': 15.57880522,
      'ECCENTRICITY': 0.0008101,
      'INCLINATION': 53,
      'RA_OF_ASC_NODE': 92.359,
      'ARG_OF_PERICENTER': 218.9657,
      'MEAN_ANOMALY': 117.1508,
      'EPHEMERIS_TYPE': 0,
      'CLASSIFICATION_TYPE': 'U',
      'NORAD_CAT_ID': 44243,
      'ELEMENT_SET_NO': 999,
      'REV_AT_EPOCH': 6107,
      'BSTAR': -0.00008,
      'MEAN_MOTION_DOT': -0.0000671,
      'MEAN_MOTION_DDOT': 0,
      'SEMIMAJOR_AXIS': 6771.929,
      'PERIOD': 92.433,
      'APOAPSIS': 399.28,
      'PERIAPSIS': 388.308,
      'OBJECT_TYPE': 'PAYLOAD',
      'RCS_SIZE': 'LARGE',
      'COUNTRY_CODE': 'US',
      'LAUNCH_DATE': '2019-05-24',
      'SITE': 'AFETR',
      'DECAY_DATE': null,
      'DECAYED': 0,
      'FILE': 2770040,
      'GP_ID': 156071219,
      'TLE_LINE0': '0 STARLINK-29',
      'TLE_LINE1':
          '1 44243U 19029J   20173.33335648 -.00006710  00000-0 -81573-4 0  9990',
      'TLE_LINE2':
          '2 44243  52.9998  92.3590 0008101 218.9657 117.1508 15.57880522 61077'
    },
    'version': 'v0.9',
    'launch': '5eb87d30ffd86e000604b378',
    'id': '5eed770f096e59000698560f'
  },
  {
    'spaceTrack': {
      'CCSDS_OMM_VERS': '2.0',
      'COMMENT': 'GENERATED VIA SPACE-TRACK.ORG API',
      'CREATION_DATE': '2020-06-21 10:06:09',
      'ORIGINATOR': '18 SPCS',
      'OBJECT_NAME': 'STARLINK-76',
      'OBJECT_ID': '2019-029BE',
      'CENTER_NAME': 'EARTH',
      'REF_FRAME': 'TEME',
      'TIME_SYSTEM': 'UTC',
      'MEAN_ELEMENT_THEORY': 'SGP4',
